{
"type": "FeatureCollection",
"name": "logradourosMaringá",
"crs": { "type": "name", "properties": { "name": "urn:ogc:def:crs:EPSG::31982" } },
"features": [
{"type":"Feature","properties":{"fid":144.0,"DESC_TIPO_":"AVENIDA","DESC_LOGRA":"ANCHIETA"},"geometry":{"type":"MultiLineString","coordinates":[[[404679.877299999818206,7409149.783699999563396],[404698.077499999664724,7409185.5554],[404706.755800000391901,7409200.7955],[404715.222500000149012,7409217.940499999560416],[404723.80449999962002,7409230.098399999551475],[404732.351520653115585,7409241.561791044659913],[404741.426320024242159,7409252.612081207334995],[404751.008960684528574,7409263.224992885254323],[404761.078389472910203,7409273.377209400758147],[404771.61248374969,7409283.046426229178905],[404782.588100000284612,7409292.211400000378489],[404793.470316704479046,7409300.479572993703187],[404804.758973305346444,7409308.183569177053869],[404816.424849414615892,7409315.303446960635483],[404828.437748221214861,7409321.820776728913188],[404840.766574654902797,7409327.718688546679914],[404853.37941587541718,7409332.981915825977921],[404866.243623877409846,7409337.596834842115641],[404879.325899999588728,7409341.5515],[404890.656700000166893,7409344.647099999710917],[404901.610399999655783,7409346.710900000296533],[404910.421099999919534,7409347.980899999849498],[404918.914200000464916,7409348.615899999625981],[404929.153599999845028,7409348.774600000120699],[404945.504900000058115,7409349.330299999564886],[404959.474899999797344,7409349.330299999564886],[404971.540000000037253,7409348.695299999788404],[404982.334999999962747,7409347.901499999687076],[404994.082499999552965,7409346.790199999697506],[405012.673499999567866,7409342.743900000117719],[405031.551099999807775,7409338.168600000441074],[405051.527200000360608,7409331.157100000418723],[405060.747100000269711,7409327.928100000135601],[405069.690000000409782,7409324.329699999652803],[405076.8602,7409320.525000000372529],[405082.495799999684095,7409316.953099999576807],[405091.544599999673665,7409311.317499999888241],[405099.958399999886751,7409305.681900000199676],[405108.05460000038147,7409300.04619999974966],[405116.309700000099838,7409294.093100000172853],[405123.848799999803305,7409287.875300000421703],[405155.863400000147521,7409259.300200000405312],[405167.580699999816716,7409252.074500000104308],[405180.734400000423193,7409246.864799999631941],[405192.640700000338256,7409247.6585],[405202.03139999974519,7409254.803600000217557]],[[404921.42200000025332,7409362.783200000412762],[404899.798600000329316,7409357.216300000436604],[404885.826299999840558,7409353.619199999608099],[404832.697800000198185,7409335.41579999960959],[404790.99930000025779,7409312.555800000205636],[404767.715900000184774,7409295.834099999628961],[404745.490899999625981,7409275.302400000393391],[404732.790900000371039,7409264.083999999798834]]]}},
{"type":"Feature","properties":{"fid":1224.0,"DESC_TIPO_":"RUA","DESC_LOGRA":"SANTOS DUMONT"},"geometry":{"type":"MultiLineString","coordinates":[[[405734.294099999591708,7409211.8597],[405587.86699999962002,7409264.271099999547005],[405569.187300000339746,7409271.767400000244379],[405411.433899999596179,7409330.2193],[405403.584699999541044,7409333.129999999888241],[405238.740399999544024,7409394.258100000210106],[405158.102699999697506,7409424.160400000400841],[405141.584599999710917,7409431.174200000241399],[405105.731399999931455,7409441.411799999885261],[405077.987900000065565,7409448.2368],[405050.244400000199676,7409453.782100000418723],[405013.110700000077486,7409458.474299999885261],[404961.891800000332296,7409461.46030000038445],[404907.685300000011921,7409462.740000000223517],[404900.861499999649823,7409462.929399999789894],[404892.31969999987632,7409463.166500000283122],[404689.581399999558926,7409464.062400000169873],[404672.633399999700487,7409464.082299999892712],[404501.004200000315905,7409464.284199999645352],[404349.438500000163913,7409464.462500000372529],[404332.674599999561906,7409464.948200000450015],[404319.987599999643862,7409465.315700000151992],[404171.879800000227988,7409465.7423],[404150.525600000284612,7409465.955699999816716],[404129.197399999946356,7409466.168800000101328],[403984.571100000292063,7409467.463499999605119],[403968.945000000298023,7409467.463499999605119],[403955.973799999803305,7409467.463499999605119],[403800.519399999640882,7409467.917299999855459],[403628.587500000372529,7409468.419099999591708],[403531.257399999536574,7409468.703200000338256],[403521.883500000461936,7409468.744],[403418.153699999675155,7409469.19469999987632],[403228.010200000368059,7409470.020899999886751],[403216.152700000442564,7409470.391200000420213]],[[405734.294099999591708,7409211.952100000344217],[405909.535799999721348,7409151.061300000175834],[406083.095800000242889,7409085.751199999824166],[406247.278300000354648,7409023.9699],[406412.354399999603629,7408961.852300000376999],[406577.0296,7408899.885599999688566],[406647.309899999760091,7408873.938400000333786]]]}},
{"type":"Feature","properties":{"fid":1982.0,"DESC_TIPO_":"AVENIDA","DESC_LOGRA":"XV DE NOVEMBRO"},"geometry":{"type":"MultiLineString","coordinates":[[[404732.790900000371039,7409264.083999999798834],[404725.382500000298023,7409262.178999999538064],[404665.743400000035763,7409263.448599999770522],[404482.224100000225008,7409263.5756],[404298.920300000347197,7409264.4222999997437],[404124.929800000041723,7409264.4222999997437],[403877.490799999795854,7409265.692300000227988],[403449.089800000190735,7409267.515800000168383]],[[403448.145899999886751,7409256.2604],[403509.183799999766052,7409256.451999999582767],[403519.627799999900162,7409256.059600000269711],[403531.215499999932945,7409255.624200000427663],[403626.461799999698997,7409255.904199999757111],[403643.492999999783933,7409255.954199999570847],[403790.611499999649823,7409254.947100000455976],[403798.020899999886751,7409254.947100000455976],[403807.010999999940395,7409254.947100000455976],[403966.730999999679625,7409254.502999999560416],[403980.237800000235438,7409254.465400000102818],[404092.50870000012219,7409253.6277],[404148.170099999755621,7409253.515100000426173],[404164.731200000271201,7409253.481599999591708],[404178.942699999548495,7409253.4529],[404330.166199999861419,7409252.558799999766052],[404345.726999999955297,7409252.466799999587238],[404499.20299999974668,7409252.006400000303984],[404513.68680000025779,7409251.963000000454485],[404670.071899999864399,7409250.784400000236928],[404738.826799999922514,7409249.5532]]]}},
{"type":"Feature","properties":{"fid":1991.0,"DESC_TIPO_":"RUA","DESC_LOGRA":"PIRATININGA"},"geometry":{"type":"MultiLineString","coordinates":[[[404490.627700000070035,7409985.0115],[404489.783699999563396,7409966.90749999973923],[404491.608900000341237,7409931.794599999673665],[404493.890300000086427,7409911.27419999986887],[404497.660199999809265,7409888.077200000174344],[404498.340900000184774,7409879.573900000192225],[404499.068799999542534,7409870.479299999773502],[404501.886199999600649,7409840.210900000296533],[404501.886199999600649,7409809.2385],[404502.52379999961704,7409794.994099999777973],[404503.056499999947846,7409783.09360000025481],[404502.489000000059605,7409692.913800000213087],[404502.388500000350177,7409683.916600000113249],[404502.326799999922514,7409678.4013],[404501.836199999786913,7409585.480499999597669],[404501.753600000403821,7409571.953099999576807],[404501.673899999819696,7409558.887799999676645],[404501.023199999704957,7409472.1277],[404501.004200000315905,7409464.284199999645352],[404500.775799999944866,7409370.574],[404500.655600000172853,7409364.123599999584258],[404500.532399999909103,7409357.520899999886751],[404500.292399999685585,7409273.3777],[404500.525899999774992,7409259.613199999555945],[404500.779199999757111,7409244.677000000141561],[404499.962799999862909,7409166.012199999764562],[404499.962799999862909,7409154.75069999974221],[404499.962799999862909,7409149.553899999707937],[404499.31290000025183,7409035.012699999846518]]]}},
{"type":"Feature","properties":{"fid":2476.0,"DESC_TIPO_":"RUA","DESC_LOGRA":"NEO ALVES MARTINS"},"geometry":{"type":"MultiLineString","coordinates":[[[404921.42200000025332,7409362.783200000412762],[404997.366200000047684,7409361.238699999637902],[405064.840200000442564,7409348.339300000108778],[405131.321700000204146,7409327.501799999736249],[405176.588399999774992,7409315.112800000235438],[405182.003299999982119,7409310.796400000341237],[405189.217400000430644,7409306.4901],[405191.706399999558926,7409305.312199999578297],[405368.499900000169873,7409238.99349999986589],[405394.366399999707937,7409229.39879999961704],[405533.9216,7409177.7867],[405699.062800000421703,7409116.712100000120699],[405873.032100000418723,7409052.372499999590218],[406042.377500000409782,7408989.742999999783933],[406047.031899999827147,7408988.023299999535084],[406211.758799999952316,7408927.1573],[406377.041199999861419,7408866.086199999786913],[406554.467400000430644,7408800.527900000102818]],[[403203.258600000292063,7409369.060499999672174],[403408.010700000450015,7409369.060499999672174],[403417.69649999961257,7409368.965900000184774],[403520.730000000447035,7409367.9583],[403529.600300000049174,7409367.871500000357628],[403614.076299999840558,7409368.603500000201166],[403628.266800000332296,7409368.38190000038594],[403645.327499999664724,7409368.115500000305474],[403799.841199999675155,7409367.2451],[403953.520100000314415,7409366.3794],[403968.558500000275671,7409366.356200000271201],[404128.809299999848008,7409366.1097],[404150.525600000284612,7409365.616499999538064],[404171.779699999839067,7409365.13370000012219],[404317.819899999536574,7409365.833999999798834],[404332.096699999645352,7409365.1206],[404347.117899999953806,7409364.370000000111759],[404500.655600000172853,7409364.123599999584258],[404655.825500000268221,7409363.87459999974817],[404672.027900000102818,7409363.519999999552965],[404689.274100000038743,7409363.1426],[404841.795300000347197,7409363.184999999590218],[404855.285400000400841,7409343.15500000026077]]]}},
{"type":"Feature","properties":{"fid":2506.0,"DESC_TIPO_":"LARGO","DESC_LOGRA":"JÚLIO DO CARMO ESTEVES"},"geometry":{"type":"MultiLineString","coordinates":[[[404684.809700000099838,7409170.849600000306964],[404684.386400000192225,7409247.8964],[404732.646499999798834,7409246.838100000284612],[404715.078099999576807,7409222.707999999634922],[404696.663099999539554,7409190.957999999634922],[404684.809700000099838,7409170.849600000306964]]]}},
{"type":"Feature","properties":{"fid":2557.0,"DESC_TIPO_":null,"DESC_LOGRA":"PISTA ANTÔNIO DONIZETE FERMENTÃO (TONINHO FERMENTON)"},"geometry":{"type":"MultiLineString","coordinates":[[[405502.320299999788404,7408406.412200000137091],[405473.450457825034391,7408399.25360797625035],[405444.731237369123846,7408391.51283260434866],[405416.17437754268758,7408383.19303790666163],[405387.791550891939551,7408374.297624579630792],[405359.594358827453107,7408364.830228599719703],[405331.594326881924644,7408354.794719743542373],[405303.802899999544024,7408344.1952],[405267.886487307609059,7408319.632181745022535],[405232.262372793629766,7408294.647125580348074],[405196.93551538331667,7408269.243509460240602],[405161.910832624009345,7408243.424869603477418],[405127.193199999630451,7408217.194799999706447],[404982.994800000451505,7408413.9792],[404866.908599999733269,7408573.0603],[404774.965599999763072,7408700.722],[404764.555358646262903,7408717.32459718734026],[404754.711871206702199,7408734.269363736733794],[404745.446372273261659,7408751.536960208788514],[404736.769436766800936,7408769.107678708620369],[404728.690967867558356,7408786.96146538387984],[404721.22018571262015,7408805.077943308278918],[404714.365616872499231,7408823.436435741372406],[404708.135084619687404,7408842.015989725477993],[404702.535699999891222,7408860.795400000177324],[404697.915157761308365,7408880.52919328212738],[404693.925401336920913,7408900.400123093277216],[404690.570478033216204,7408920.388031876645982],[404687.853791166446172,7408940.472643407061696],[404685.778096610214561,7408960.633583365008235],[404684.345499999821186,7408980.850399999879301],[404684.901200000196695,7409057.566499999724329],[404686.753299999982119,7409143.529900000430644],[404691.79001836880343,7409157.709084822796285],[404697.521340343519114,7409171.622019902803004],[404703.933258624863811,7409185.234702154994011],[404711.010102542408276,7409198.513862306252122],[404718.734576353512239,7409211.427046207711101],[404727.087801513902377,7409223.942694155499339],[404736.049362816731445,7409236.03021802008152],[404745.597358287021052,7409247.660075999796391],[404755.70845271012513,7409258.80384482908994],[404766.357934662431944,7409269.434289235621691],[404777.519776906294283,7409279.525428510271013],[404789.166699999943376,7409289.0526],[404798.969533310388215,7409296.953535067848861],[404809.190930918732192,7409304.30495308060199],[404819.800125198555179,7409311.084725391119719],[404830.765181209077127,7409317.272444077767432],[404842.053092823422048,7409322.849483367986977],[404853.629882080655079,7409327.799055708572268],[404865.460701463744044,7409332.106262295506895],[404877.50993879471207,7409335.758137923665345],[404889.741324431321118,7409338.74369001109153],[404902.118040443398058,7409341.053931689821184],[404914.602831438940484,7409342.68190885707736],[404927.158116707229055,7409343.622721106745303],[404939.746103341574781,7409343.873536482453346],[404952.328900000080466,7409343.433600000105798],[404966.088748455687892,7409343.56763313524425],[404979.834654857462738,7409342.934031055308878],[404993.523827667988371,7409341.534766188822687],[405007.113651963532902,7409339.37419450096786],[405020.561822096293326,7409336.459041934460402],[405033.826473393186461,7409332.798383473418653],[405046.866312482452486,7409328.403614887036383],[405059.64074584149057,7409323.288417260162532],[405072.110006165807135,7409317.468714401125908],[405084.235276166466065,7409310.962623269297183],[405095.978809409716632,7409303.790397577919066],[405107.304047822952271,7409295.974364742636681],[405118.175735501630697,7409287.538856375031173],[405128.560028462205082,7409278.510132539086044],[405138.424599999561906,7409268.916299999691546],[405147.566181439848151,7409260.049209300428629],[405156.161626800196245,7409250.651756041683257],[405164.180222933646291,7409240.757519096136093],[405171.593317884253338,7409230.40185243729502],[405178.374423265748192,7409219.621758815832436],[405184.499308910104446,7409208.455757537856698],[405189.946089445904363,7409196.943746832199395],[405194.695302499167155,7409185.126861283555627],[405198.729978236195166,7409173.047324852086604],[405202.035699999891222,7409160.7483],[405205.057805300981272,7409147.720245513133705],[405207.66753739840351,7409134.603362402878702],[405209.862300000153482,7409121.410699999891222],[405253.18790000025183,7408902.467400000430644],[405286.393299999646842,7408731.149299999698997],[405292.651869154069573,7408711.437754392623901],[405299.520920843002386,7408691.930554517544806],[405306.993799107265659,7408672.646602420136333],[405315.063262893061619,7408653.604583822190762],[405323.721493068442214,7408634.82295001950115],[405332.960099999792874,7408616.319899999536574],[405343.37757852737559,7408597.796827563084662],[405354.475860783597454,7408579.673466883599758],[405366.239630734315142,7408561.974828858859837],[405378.652653948054649,7408544.725338255986571],[405391.697800000198185,7408527.948800000362098],[405404.579458515392616,7408512.827221939340234],[405418.026390284008812,7408498.206029267981648],[405432.019173913111445,7408484.106339361518621],[405446.537599636183586,7408470.548516391776502],[405461.560698502231389,7408457.552141912281513],[405477.066772661288269,7408445.135986576788127],[405493.033426702430006,7408433.31798302847892],[405509.437599999830127,7408422.115199999883771],[405510.487437715986744,7408421.101275590248406],[405511.357907824451104,7408419.929745083674788],[405512.025713187700603,7408418.631963154301047],[405512.472980758349877,7408417.24266345333308],[405512.687739930988755,7408415.799028999172151],[405512.664242921746336,7408414.339697019197047],[405512.403118601243477,7408412.903724865056574],[405511.911355663498398,7408411.529544690623879],[405511.202115581603721,7408410.253934857435524],[405510.294380355800968,7408409.111035606823862],[405509.21244448213838,7408408.131435329094529],[405507.98526473774109,7408407.341351906768978],[405506.645685186202172,7408406.761931020766497],[405505.229558143240865,7408406.40868020709604],[405503.774784630921204,7408406.291053822264075],[405502.320299999788404,7408406.412200000137091]]]}},
{"type":"Feature","properties":{"fid":2558.0,"DESC_TIPO_":"PARQUE","DESC_LOGRA":"DO INGÁ PREFEITO ADRIANO JOSÉ VALENTE"},"geometry":{"type":"MultiLineString","coordinates":[[[405127.780899999663234,7408231.159400000236928],[405025.056099999696016,7408371.852],[404936.089700000360608,7408494.552799999713898],[404813.388799999840558,7408662.894299999810755],[404775.685600000433624,7408720.772199999541044],[404758.156999999657273,7408754.5066],[404745.589200000278652,7408783.6108],[404726.406899999827147,7408824.621299999766052],[404707.885900000110269,7408883.4912],[404698.294800000265241,7408935.085199999623001],[404693.003100000321865,7409007.184299999848008],[404694.326000000350177,7409124.924200000241399],[404697.302600000053644,7409147.083100000396371],[404701.515182161645498,7409158.795699691399932],[404706.298794935981277,7409170.286908887326717],[404711.641857130103745,7409181.528907214291394],[404717.531433116528206,7409192.494477636180818],[404723.953264150011819,7409203.15707235597074],[404730.891802888654638,7409213.49087708350271],[404738.330251033999957,7409223.470873534679413],[404746.250599999912083,7409233.0729],[404754.103733809257392,7409243.951525930315256],[404762.533897689543664,7409254.389368126168847],[404771.516400322259869,7409264.355854930356145],[404781.024932630010881,7409273.821795248426497],[404791.031644833856262,7409282.759464050643146],[404801.507228023372591,7409291.142683575861156],[404812.421000000089407,7409298.946899999864399],[404824.931640158290975,7409305.682143832556903],[404837.770461637235712,7409311.768545864149928],[404850.903841094928794,7409317.190166532993317],[404864.297383776982315,7409321.932807262055576],[404877.916013592621312,7409325.984047640115023],[404891.724064974870998,7409329.333277951925993],[404905.685376284003723,7409331.971726963296533],[404919.763384511112235,7409333.892484891228378],[404933.921221031690948,7409335.090521498583257],[404948.121808160736691,7409335.562699271366],[404962.327956254244782,7409335.307781632058322],[404976.502461104828399,7409334.326436179690063],[404990.608201375056524,7409332.621232940815389],[405004.608235813619103,7409330.19663763884455],[405018.465900000184774,7409327.059000000357628],[405031.459041295107454,7409323.110843421891332],[405044.228770256100688,7409318.49092098325491],[405056.740381738578435,7409313.2117885556072],[405068.959872101142537,7409307.287793589755893],[405080.854031619383022,7409300.735036121681333],[405092.39053474215325,7409293.571325018070638],[405103.538027945207432,7409285.816129574552178],[405114.266214942210354,7409277.490526603534818],[405124.545939023548272,7409268.617143151350319],[405134.349262297037058,7409259.220095004886389],[405143.649541616789065,7409249.32492114789784],[405152.421500993135851,7409238.958514356054366],[405160.641300286690239,7409228.149048103950918],[405168.286600000225008,7409216.925900000147521],[405175.248782172624487,7409204.442091005854309],[405181.559586538758595,7409191.616678114049137],[405187.202303521509748,7409178.483620105311275],[405192.161992487206589,7409165.077690336853266],[405196.425521305587608,7409151.434384666383266],[405199.981601120089181,7409137.589827469550073],[405202.820816238818225,7409123.580675992183387],[405204.935649064660538,7409109.444023286923766],[405206.32050000037998,7409095.217299999669194],[405217.839392594702076,7409026.281975477002561],[405230.042707575776149,7408957.464514342136681],[405242.929239977849647,7408888.771711690351367],[405256.497717373538762,7408820.21035030670464],[405270.746799999848008,7408751.787200000137091],[405273.583805513044354,7408735.642536867409945],[405277.099857594759669,7408719.632036385126412],[405281.28868694108678,7408703.784246108494699],[405286.142824651207775,7408688.127423472702503],[405291.653615544899367,7408672.689485409297049],[405297.811233594897203,7408657.497958563268185],[405304.604699447751045,7408642.57993021979928],[405312.021900000050664,7408627.962000000290573],[405320.853401631000452,7408611.013728050515056],[405330.259426030388568,7408594.377440960146487],[405340.22896606544964,7408578.07260687276721],[405350.750355165218934,7408562.118306055665016],[405361.811280972964596,7408546.533208576962352],[405373.398799754562788,7408531.335552453994751],[405385.499351545411628,7408516.543122312054038],[405398.098776018538047,7408502.173228572122753],[405411.182329055445734,7408488.242687194608152],[405424.734699999913573,7408474.767799999564886],[405435.341260443965439,7408463.999728737398982],[405446.429000091331545,7408453.727800355292857],[405457.974734419083688,7408443.973493511788547],[405469.954321234778035,7408434.75720451399684],[405482.342711158387829,7408426.098204672336578],[405495.114000000059605,7408418.014600000344217],[405325.118800000287592,7408368.40500000026077],[405272.201999999582767,7408338.6393],[405127.780899999663234,7408230.828700000420213]]]}},
{"type":"Feature","properties":{"fid":2920.0,"DESC_TIPO_":"AVENIDA","DESC_LOGRA":"HERVAL"},"geometry":{"type":"MultiLineString","coordinates":[[[404337.112800000235438,7409037.215400000102818],[404337.933000000193715,7409155.50829999987036],[404337.5296,7409252.5153],[404338.72580000013113,7409363.26630000025034],[404341.636199999600649,7409463.014399999752641],[404340.048600000329316,7409570.03870000038296],[404341.375799999572337,7409684.635300000198185],[404340.396999999880791,7409759.136800000444055],[404341.663200000301003,7409788.360999999567866]],[[404341.663200000301003,7409788.360999999567866],[404339.958599999547005,7409820.55449999962002],[404338.635700000450015,7409844.036399999633431],[404335.997700000181794,7409868.261199999600649],[404334.663399999961257,7409878.23369999974966],[404329.044499999843538,7409899.9298],[404325.737200000323355,7409920.434999999590218],[404321.106999999843538,7409943.255400000140071],[404317.128499999642372,7409972.16330000013113],[404315.153900000266731,7410000.802400000393391],[404315.485600000247359,7410133.2149],[404315.815399999730289,7410189.3185],[404316.477900000289083,7410237.145700000226498],[404318.47620000038296,7410324.6711],[404320.115000000223517,7410410.614],[404318.46750000026077,7410496.559399999678135],[404319.122600000351667,7410533.60840000025928],[404319.783999999985099,7410636.4655],[404323.425200000405312,7410643.974100000225008]],[[404311.004599999636412,7410648.3624],[404301.924599999561906,7410641.095700000412762],[404304.651399999856949,7410496.574500000104308],[404306.554800000041723,7410395.69400000013411],[404305.541400000452995,7410324.362300000153482],[404302.255400000140071,7410093.076100000180304],[404303.247600000351667,7409976.989799999631941],[404310.523699999786913,7409934.65639999974519],[404323.075699999928474,7409878.144000000320375],[404327.721599999815226,7409836.42960000038147],[404328.105299999937415,7409801.322100000455976],[404328.383100000210106,7409775.906000000424683],[404329.375300000421703,7409612.525399999693036],[404329.044599999673665,7409441.537999999709427],[404329.706100000068545,7409271.212000000290573],[404328.052500000223517,7409099.893799999728799],[404324.672199999913573,7409037.394500000402331]]]}},
{"type":"Feature","properties":{"fid":2925.0,"DESC_TIPO_":"LARGO","DESC_LOGRA":"LARGO DAS GARÇAS"},"geometry":{"type":"MultiLineString","coordinates":[[[404856.232099999673665,7409350.5126],[404889.649000000208616,7409360.619699999690056],[404890.501302947697695,7409361.460481595247984],[404891.219229475827888,7409362.418560665100813],[404891.786843767098617,7409363.472670727409422],[404892.191546485177241,7409364.599413694813848],[404892.424354442511685,7409365.773779251612723],[404892.480100000277162,7409366.969700000248849],[404885.495099999941885,7409366.863900000229478],[404851.363800000399351,7409366.517699999734759],[404856.232099999673665,7409350.5126]]]}},
{"type":"Feature","properties":{"fid":2977.0,"DESC_TIPO_":"AVENIDA","DESC_LOGRA":"SÃO PAULO"},"geometry":{"type":"MultiLineString","coordinates":[[[404730.243599999696016,7410494.782800000160933],[404721.165300000458956,7410469.340400000102818]],[[404721.165300000458956,7410469.340400000102818],[404684.24280000012368,7410365.8613],[404684.569099999964237,7410149.589499999769032],[404684.639700000174344,7410102.7325],[404684.183199999853969,7410023.973500000312924],[404684.111600000411272,7410011.623999999836087],[404684.072700000368059,7410004.9183],[404684.005199999548495,7409993.27309999987483],[404683.263600000180304,7409865.34389999974519],[404683.052199999801815,7409828.8881],[404681.98589999973774,7409688.1365],[404680.671000000089407,7409514.562199999578297],[404680.053600000217557,7409258.325899999588728],[404680.035500000230968,7409250.792600000277162],[404679.886422163166571,7409188.939904004335403]],[[404679.886422163166571,7409188.939904004335403],[404679.877299999818206,7409185.1551],[404679.877299999818206,7409012.910899999551475],[404683.449199999682605,7408947.823300000280142],[404686.612999999895692,7408927.100399999879301],[404691.386699999682605,7408895.832499999552965],[404702.102400000207126,7408848.207399999722838],[404706.265800000168383,7408834.495900000445545],[404711.942025316297077,7408817.529500951059163],[404718.14476144942455,7408800.74843140784651],[404724.867970723775215,7408784.16902588121593],[404732.10510884062387,7408767.807422584854066],[404739.8491312484839,7408751.679547725245357],[404748.09250000026077,7408735.801099999807775],[404757.745507789659314,7408718.609569247812033],[404767.983900000341237,7408701.760099999606609]],[[404767.983900000341237,7408701.760099999606609],[404820.200500000268221,7408629.827200000174344],[404923.228400000371039,7408487.89740000013262],[404998.17200000025332,7408384.6563],[405029.050900000147521,7408342.432900000363588],[405200.181900000199676,7408108.43059999961406],[405235.943699999712408,7408060.134600000455976],[405362.107300000265241,7407889.751899999566376],[405385.58420000039041,7407857.560499999672174],[405492.936999999918044,7407710.35950000025332],[405505.379599999636412,7407693.2983],[405538.32039999961853,7407641.704400000162423],[405553.401700000278652,7407618.685600000433624],[405567.689199999906123,7407605.191800000146031],[405583.167299999855459,7407589.316800000146031],[405610.315299999900162,7407551.0406],[405610.410299999639392,7407550.906600000336766],[405671.27379999961704,7407465.094600000418723],[405788.35219999961555,7407306.344200000166893],[405824.262199999764562,7407251.52240000013262]],[[404664.423000000417233,7409683.198599999770522],[404664.783900000154972,7409787.449300000444055],[404664.803399999625981,7409793.103900000452995],[404665.275200000032783,7409875.039200000464916],[404668.403699999675155,7409984.791400000452995],[404669.045800000429153,7410019.940899999812245],[404667.775799999944866,7410063.332600000314415],[404668.878200000151992,7410130.5449],[404669.0455,7410140.7484],[404669.061599999666214,7410147.7467],[404669.262099999934435,7410235.224899999797344],[404668.839300000108778,7410322.728400000371039],[404670.739099999889731,7410372.1551],[404674.972400000318885,7410390.7818],[404682.686200000345707,7410409.699300000444055],[404688.942400000058115,7410429.305200000293553],[404694.02240000013262,7410446.661899999715388],[404707.403800000436604,7410458.1689],[404721.165300000458956,7410469.340400000102818]],[[404679.886500000022352,7409188.940000000409782],[404679.886422163166571,7409188.939904004335403]],[[404679.886422163166571,7409188.939904004335403],[404665.295454402978066,7409170.94486709497869]],[[404665.295454402978066,7409170.94486709497869],[404665.295400000177324,7409170.944799999706447]],[[405511.611399999819696,7407655.2495],[405478.811300000175834,7407700.422399999573827],[405388.582200000062585,7407824.687400000169873],[405343.867600000463426,7407886.60010000038892],[405244.975300000049174,7408021.290300000458956],[405211.680100000463426,7408066.6381],[405109.975200000219047,7408205.159199999645352],[405050.973000000230968,7408288.767699999734759],[405016.956399999558926,7408333.689000000245869],[405007.845900000073016,7408345.653300000354648],[404966.570700000040233,7408403.861700000241399],[404911.838899999856949,7408479.609000000171363],[404808.052899999544024,7408620.7802],[404764.957700000144541,7408682.9978],[404755.465324028278701,7408696.761738432571292]],[[404755.465324028278701,7408696.761738432571292],[404743.791000000201166,7408713.689500000327826],[404733.921299999579787,7408730.99309999961406],[404729.503399999812245,7408740.677199999801815],[404717.861800000071526,7408764.225200000219047],[404705.426199999637902,7408788.302299999631941],[404689.321899999864399,7408828.9528],[404673.940700000151992,7408894.92960000038147],[404669.655600000172853,7408924.893000000156462],[404665.474000000394881,7408987.534],[404665.208499999716878,7409047.105700000189245],[404665.208499999716878,7409049.83669999986887],[404665.208499999716878,7409153.9995],[404665.295454402978066,7409170.94486709497869]],[[404665.295454402978066,7409170.94486709497869],[404665.744400000199676,7409258.433799999766052],[404665.724499999545515,7409363.657999999821186],[404667.061200000345707,7409464.088899999856949],[404665.740500000305474,7409579.134499999694526],[404664.423000000417233,7409683.198599999770522]],[[405807.607400000095367,7407250.947499999776483],[405790.74239999987185,7407278.636199999600649],[405711.234899999573827,7407386.983300000429153],[405607.518000000156462,7407529.594100000336766],[405511.611399999819696,7407655.2495]],[[404759.763500000350177,7408690.529400000348687],[404761.553718231909443,7408690.390705641359091],[404763.342383468523622,7408690.548167105764151],[404765.080835866509005,7408690.997500726021826],[404766.721781599975657,7408691.726482578553259],[404768.220579468586948,7408692.715281036682427],[404769.53645534167299,7408693.936996277421713],[404770.633611400146037,7408695.358392078429461],[404771.482200000435114,7408696.9408]],[[404767.983900000341237,7408701.760099999606609],[404766.405343020276632,7408702.167022574692965],[404764.782415420166217,7408702.320430940017104],[404763.155569776427001,7408702.216501285322011],[404761.56535632541636,7408701.857824129983783],[404760.05141222110251,7408701.253339746035635],[404758.651473552046809,7408700.418115318752825],[404757.400434743613005,7408699.372969385236502],[404756.329478790692519,7408698.143952921032906],[404755.465324028278701,7408696.761738432571292]],[[404755.465324028278701,7408696.761738432571292],[404755.465300000272691,7408696.761699999682605]]]}}
]
}
